COSMOS 2251 DEB         
1 37971U 93036BPW 17345.40606971  .00000517  00000-0  21622-3 0  9990
2 37971  74.0024 344.3307 0088464  78.9081 282.1998 14.26454521421564
